NORAD_CAT_ID,OBJECT_NAME,OBJECT_TYPE,EPOCH,MEAN_MOTION,ECCENTRICITY,INCLINATION,RA_OF_ASC_NODE,ARG_OF_PERICENTER,MEAN_ANOMALY,BSTAR,MEAN_MOTION_DOT,MEAN_MOTION_DDOT,TLE_LINE0,TLE_LINE1,TLE_LINE2,SEMIMAJOR_AXIS,PERIOD,APOGEE,PERIGEE,DECAYED
53843.0,STARLINK-4769,PAYLOAD,2023-05-12 14:59:53,15.08841233,0.0001138,53.2157,247.328,95.2757,264.8365,-3.8605e-05,-9.02e-06,0.0,0 STARLINK-4769,1 53843U 22114AB  23132.62491943 -.00000902  00000-0 -38605-4 0  9991,2 53843  53.2157 247.3280 0001138  95.2757 264.8365 15.08841233 36628,6917.877,95.437,540.529,538.954,0.0
53843.0,STARLINK-4769,PAYLOAD,2023-05-13 13:15:16,15.08842932,0.0001001,53.2145,243.1687,91.6272,268.4834,3.6175e-05,2.88e-06,0.0,0 STARLINK-4769,1 53843U 22114AB  23133.55227853  .00000288  00000-0  36175-4 0  9996,2 53843  53.2145 243.1687 0001001  91.6272 268.4834 15.08842932 37305,6917.871,95.437,540.429,539.044,0.0
53843.0,STARLINK-4769,PAYLOAD,2023-05-13 14:50:39,15.08846096,0.000105,53.2148,242.8706,89.8494,270.2619,9.0743e-05,1.157e-05,0.0,0 STARLINK-4769,1 53843U 22114AB  23133.61851699  .00001157  00000-0  90743-4 0  9991,2 53843  53.2148 242.8706 0001050  89.8494 270.2619 15.08846096 37313,6917.862,95.437,540.453,539.0,0.0
53843.0,STARLINK-4769,PAYLOAD,2023-05-14 01:58:22,15.08836716,0.0001362,53.2165,240.7902,87.7864,272.3284,5.142e-05,5.3e-06,0.0,0 STARLINK-4769,1 53843U 22114AB  23134.08220321  .00000530  00000-0  51420-4 0  9998,2 53843  53.2165 240.7902 0001362  87.7864 272.3284 15.08836716 36847,6917.89,95.438,540.698,538.813,0.0
53843.0,STARLINK-4769,PAYLOAD,2023-05-14 11:30:41,15.08830342,0.0001108,53.2157,239.0027,90.7074,269.4045,-1.5203e-05,-5.3e-06,0.0,0 STARLINK-4769,1 53843U 22114AB  23134.47964706 -.00000530  00000-0 -15203-4 0  9994,2 53843  53.2157 239.0027 0001108  90.7074 269.4045 15.08830342 37440,6917.91,95.438,540.541,539.008,0.0
53843.0,STARLINK-4769,PAYLOAD,2023-05-15 12:56:51,15.08844912,0.0001134,53.2165,234.2442,93.9596,266.1526,4.2939e-05,3.96e-06,0.0,0 STARLINK-4769,1 53843U 22114AB  23135.53948277  .00000396  00000-0  42939-4 0  9991,2 53843  53.2165 234.2442 0001134  93.9596 266.1526 15.08844912 37064,6917.865,95.437,540.515,538.946,0.0
53843.0,STARLINK-4769,PAYLOAD,2023-05-15 14:32:14,15.08846559,0.0001161,53.2164,233.9468,95.072,265.0405,6.1974e-05,6.99e-06,0.0,0 STARLINK-4769,1 53843U 22114AB  23135.60572136  .00000699  00000-0  61974-4 0  9992,2 53843  53.2164 233.9468 0001161  95.0720 265.0405 15.08846559 37613,6917.86,95.437,540.529,538.922,0.0
53843.0,STARLINK-4769,PAYLOAD,2023-05-16 12:47:38,15.08837099,0.0001226,53.2162,229.7835,97.2888,262.8243,0.00014616,2.039e-05,0.0,0 STARLINK-4769,1 53843U 22114AB  23136.53308750  .00002039  00000-0  14616-3 0  9994,2 53843  53.2162 229.7835 0001226  97.2888 262.8243 15.08837099 37213,6917.889,95.438,540.602,538.906,0.0
53843.0,STARLINK-4769,PAYLOAD,2023-05-16 15:58:24,15.08841262,0.0001255,53.2165,229.1877,99.0026,261.1108,0.00011112,1.481e-05,0.0,0 STARLINK-4769,1 53843U 22114AB  23136.66556544  .00001481  00000-0  11112-3 0  9992,2 53843  53.2165 229.1877 0001255  99.0026 261.1108 15.08841262 37772,6917.877,95.437,540.61,538.873,0.0
53843.0,STARLINK-4769,PAYLOAD,2023-05-17 11:03:02,15.08841601,0.0001188,53.2165,225.6192,103.1865,256.926,9.0349e-05,1.15e-05,0.0,0 STARLINK-4769,1 53843U 22114AB  23137.46044475  .00001150  00000-0  90349-4 0  9999,2 53843  53.2165 225.6192 0001188 103.1865 256.9260 15.08841601 37897,6917.875,95.437,540.562,538.919,0.0
53843.0,STARLINK-4769,PAYLOAD,2023-05-18 12:29:12,15.08841665,0.0001117,53.2159,220.8619,108.1405,251.9709,-4.3337e-05,-9.77e-06,0.0,0 STARLINK-4769,1 53843U 22114AB  23138.52028851 -.00000977  00000-0 -43337-4 0  9990,2 53843  53.2159 220.8619 0001117 108.1405 251.9709 15.08841665 37510,6917.875,95.437,540.513,538.968,0.0
53843.0,STARLINK-4769,PAYLOAD,2023-05-18 22:01:31,15.08838967,9.93e-05,53.2157,219.0799,96.6193,263.4912,7.3677e-06,-1.7e-06,0.0,0 STARLINK-4769,1 53843U 22114AB  23138.91772930 -.00000170  00000-0  73677-5 0  9992,2 53843  53.2157 219.0799 0000993  96.6193 263.4912 15.08838967 38115,6917.884,95.438,540.435,539.062,0.0
53843.0,STARLINK-4769,PAYLOAD,2023-05-19 09:09:14,15.08834021,9.68e-05,53.2155,216.9985,98.7452,261.365,9.8461e-06,-1.31e-06,0.0,0 STARLINK-4769,1 53843U 22114AB  23139.38141381 -.00000131  00000-0  98461-5 0  9999,2 53843  53.2155 216.9985 0000968  98.7452 261.3650 15.08834021 37649,6917.899,95.438,540.433,539.094,0.0
53843.0,STARLINK-4769,PAYLOAD,2023-05-19 21:52:18,15.08837423,9.18e-05,53.2157,214.6197,94.5054,265.6043,7.4403e-05,8.97e-06,0.0,0 STARLINK-4769,1 53843U 22114AB  23139.91133073  .00000897  00000-0  74403-4 0  9994,2 53843  53.2157 214.6197 0000918  94.5054 265.6043 15.08837423 38269,6917.888,95.438,540.388,539.118,0.0
53843.0,STARLINK-4769,PAYLOAD,2023-05-20 04:13:51,15.08841672,9.09e-05,53.2158,213.4299,89.6686,270.441,0.00010916,1.45e-05,0.0,0 STARLINK-4769,1 53843U 22114AB  23140.17628810  .00001450  00000-0  10916-3 0  9996,2 53843  53.2158 213.4299 0000909  89.6686 270.4410 15.08841672 37763,6917.875,95.437,540.369,539.111,0.0
53843.0,STARLINK-4769,PAYLOAD,2023-05-20 12:10:46,15.08849423,9.42e-05,53.2158,211.9433,86.9404,273.1695,0.00017407,2.484e-05,0.0,0 STARLINK-4769,1 53843U 22114AB  23140.50748166  .00002484  00000-0  17407-3 0  9990,2 53843  53.2158 211.9433 0000942  86.9404 273.1695 15.08849423 37814,6917.852,95.437,540.368,539.065,0.0
53843.0,STARLINK-4769,PAYLOAD,2023-05-20 21:43:05,15.0884872,9.68e-05,53.2163,210.1595,90.4769,269.6334,0.00014757,2.062e-05,0.0,0 STARLINK-4769,1 53843U 22114AB  23140.90492136  .00002062  00000-0  14757-3 0  9994,2 53843  53.2163 210.1595 0000968  90.4769 269.6334 15.08848720 38418,6917.854,95.437,540.388,539.049,0.0
53843.0,STARLINK-4769,PAYLOAD,2023-05-21 04:04:38,15.08843314,0.0001008,53.2164,208.9702,90.0246,270.0861,0.00012036,1.628e-05,0.0,0 STARLINK-4769,1 53843U 22114AB  23141.16988544  .00001628  00000-0  12036-3 0  9991,2 53843  53.2164 208.9702 0001008  90.0246 270.0861 15.08843314 37915,6917.87,95.437,540.433,539.038,0.0
53843.0,STARLINK-4769,PAYLOAD,2023-05-21 12:01:33,15.08843163,0.000104,53.2166,207.483,89.0195,271.0917,0.00010703,1.416e-05,0.0,0 STARLINK-4769,1 53843U 22114AB  23141.50108560  .00001416  00000-0  10703-3 0  9995,2 53843  53.2166 207.4830 0001040  89.0195 271.0917 15.08843163 38501,6917.871,95.437,540.455,539.016,0.0
53843.0,STARLINK-4769,PAYLOAD,2023-05-21 21:33:53,15.08837524,0.0001013,53.2161,205.6995,72.7394,287.3709,1.6395e-05,-2.7e-07,0.0,0 STARLINK-4769,1 53843U 22114AB  23141.89853172 -.00000027  00000-0  16395-4 0  9995,2 53843  53.2161 205.6995 0001013  72.7394 287.3709 15.08837524 38567,6917.888,95.438,540.454,539.052,0.0
53843.0,STARLINK-4769,PAYLOAD,2023-05-22 03:55:25,15.08838508,0.0001229,53.2166,204.5101,78.2968,281.8162,-3.8685e-05,-9.03e-06,0.0,0 STARLINK-4769,1 53843U 22114AB  23142.16349435 -.00000903  00000-0 -38685-4 0  9998,2 53843  53.2166 204.5101 0001229  78.2968 281.8162 15.08838508 38066,6917.885,95.438,540.6,538.9,0.0
53843.0,STARLINK-4769,PAYLOAD,2023-05-22 10:16:58,15.08837704,0.0001261,53.2169,203.3205,78.87,281.2434,-4.5119e-05,-1.006e-05,0.0,0 STARLINK-4769,1 53843U 22114AB  23142.42845540 -.00001006  00000-0 -45119-4 0  9990,2 53843  53.2169 203.3205 0001261  78.8700 281.2434 15.08837704 38644,6917.887,95.438,540.625,538.88,0.0
53843.0,STARLINK-4769,PAYLOAD,2023-05-23 10:07:45,15.08842471,0.0001029,53.2167,198.8581,86.185,273.926,5.2393e-05,5.46e-06,0.0,0 STARLINK-4769,1 53843U 22114AB  23143.42205042  .00000546  00000-0  52393-4 0  9996,2 53843  53.2167 198.8581 0001029  86.1850 273.9260 15.08842471 38256,6917.873,95.437,540.45,539.026,0.0
53843.0,STARLINK-4769,PAYLOAD,2023-05-23 21:15:27,15.08842439,0.0001031,53.2167,196.7765,89.6651,270.4459,4.9279e-05,4.97e-06,0.0,0 STARLINK-4769,1 53843U 22114AB  23143.88573039  .00000497  00000-0  49279-4 0  9994,2 53843  53.2167 196.7765 0001031  89.6651 270.4459 15.08842439 38860,6917.873,95.437,540.451,539.025,0.0
53843.0,STARLINK-4769,PAYLOAD,2023-05-24 08:23:09,15.08834612,9.78e-05,53.2159,194.6956,76.8931,283.2171,0.00016687,2.369e-05,0.0,0 STARLINK-4769,1 53843U 22114AB  23144.34941547  .00002369  00000-0  16687-3 0  9995,2 53843  53.2159 194.6956 0000978  76.8931 283.2171 15.08834612 38393,6917.897,95.438,540.438,539.085,0.0
53843.0,STARLINK-4769,PAYLOAD,2023-05-26 03:18:34,15.08836485,9.5e-05,53.2154,186.6659,80.0128,280.0971,3.2755e-05,2.34e-06,0.0,0 STARLINK-4769,1 53843U 22114AB  23146.13789801  .00000234  00000-0  32755-4 0  9991,2 53843  53.2154 186.6659 0000950  80.0128 280.0971 15.08836485 38667,6917.891,95.438,540.413,539.099,0.0
53843.0,STARLINK-4769,PAYLOAD,2023-05-26 09:40:06,15.08836926,9.6e-05,53.2156,185.4776,85.1516,274.9586,2.7504e-05,1.5e-06,0.0,0 STARLINK-4769,1 53843U 22114AB  23146.40285798  .00000150  00000-0  27504-4 0  9990,2 53843  53.2156 185.4776 0000960  85.1516 274.9586 15.08836926 39243,6917.89,95.438,540.419,539.091,0.0
53843.0,STARLINK-4769,PAYLOAD,2023-05-27 09:30:53,15.08837284,9.57e-05,53.2155,181.017,83.565,276.5451,5.3668e-05,5.66e-06,0.0,0 STARLINK-4769,1 53843U 22114AB  23147.39645826  .00000566  00000-0  53668-4 0  9992,2 53843  53.2155 181.0170 0000957  83.5650 276.5451 15.08837284 38852,6917.889,95.438,540.416,539.092,0.0
53843.0,STARLINK-4769,PAYLOAD,2023-05-27 19:03:12,15.08837349,9.64e-05,53.2153,179.2316,76.459,283.6509,5.0719e-05,5.19e-06,0.0,0 STARLINK-4769,1 53843U 22114AB  23147.79389892  .00000519  00000-0  50719-4 0  9996,2 53843  53.2153 179.2316 0000964  76.4590 283.6509 15.08837349 39455,6917.888,95.438,540.42,539.087,0.0
53843.0,STARLINK-4769,PAYLOAD,2023-05-28 06:10:54,15.08837825,9.54e-05,53.2154,177.1508,79.8268,280.2831,6.8882e-05,8.09e-06,0.0,0 STARLINK-4769,1 53843U 22114AB  23148.25757921  .00000809  00000-0  68882-4 0  9992,2 53843  53.2154 177.1508 0000954  79.8268 280.2831 15.08837825 39522,6917.887,95.438,540.412,539.092,0.0
